0 DELTA 1 DEB
1 21366U 75052CL  13280.63781760  .00000062  00000-0  19134-3 0  5770
2 21366 100.2031 143.2250 0022789 071.6912 353.5848 13.42181209 95919
0 DELTA 1 DEB
1 21366U 75052CL  13283.18301877  .00000117  00000-0  28964-3 0  5783
2 21366 100.2029 145.7954 0022823 065.7517 051.4439 13.42182459 96254
0 DELTA 1 DEB
1 21366U 75052CL  13285.85536002  .00000151  00000-0  34989-3 0  5792
2 21366 100.2022 148.4943 0022832 059.4988 003.6434 13.42183340 96611
0 DELTA 1 DEB
1 21366U 75052CL  13287.86857997  .00000179  00000-0  39837-3 0  5803
2 21366 100.2018 150.5274 0022850 054.8043 011.0946 13.42184441 96881
0 DELTA 1 DEB
1 21366U 75052CL  13290.18960020  .00000163  00000-0  37109-3 0  5818
2 21366 100.2013 152.8714 0022843 049.3872 065.7852 13.42185738 97198
0 DELTA 1 DEB
1 21366U 75052CL  13292.20220477  .00000185  00000-0  40981-3 0  5825
2 21366 100.2010 154.9037 0022832 044.6928 070.2822 13.42186780 97460
0 DELTA 1 DEB
1 21366U 75052CL  13294.50277023  .00000176  00000-0  39302-3 0  5835
2 21366 100.2009 157.2266 0022825 039.3318 026.1505 13.42187788 97775
